{
  "type": "Feature",
  "properties": {
    "district_id": "hcm_district_4_historic",
    "district_name": "Quận 4, Thành phố Hồ Chí Minh, Việt Nam",
    "source": "OpenStreetMap via Nominatim",
    "osm_type": "relation",
    "osm_id": 2778323,
    "historic_end_date": "2025-06-30"
  },
  "geometry": {
    "type": "Polygon",
    "coordinates": [
      [
        [
          106.6864219,
          10.7517073
        ],
        [
          106.6874467,
          10.7518162
        ],
        [
          106.6902025,
          10.7521092
        ],
        [
          106.6904238,
          10.7521579
        ],
        [
          106.6907354,
          10.7522234
        ],
        [
          106.691004,
          10.75228
        ],
        [
          106.6914007,
          10.7523251
        ],
        [
          106.6917998,
          10.7523424
        ],
        [
          106.6928281,
          10.7523485
        ],
        [
          106.6954976,
          10.7523644
        ],
        [
          106.6984037,
          10.7523817
        ],
        [
          106.7021717,
          10.7524042
        ],
        [
          106.7021935,
          10.7524043
        ],
        [
          106.7050483,
          10.7524189
        ],
        [
          106.7078697,
          10.7524333
        ],
        [
          106.709965,
          10.7524441
        ],
        [
          106.7122857,
          10.752456
        ],
        [
          106.7140815,
          10.7524652
        ],
        [
          106.7149853,
          10.7524699
        ],
        [
          106.7155179,
          10.7524726
        ],
        [
          106.7158543,
          10.7524833
        ],
        [
          106.7160772,
          10.7524938
        ],
        [
          106.7165526,
          10.7525464
        ],
        [
          106.7170231,
          10.7526249
        ],
        [
          106.7174356,
          10.7527259
        ],
        [
          106.7176482,
          10.7527915
        ],
        [
          106.7178581,
          10.7528657
        ],
        [
          106.7180647,
          10.7529483
        ],
        [
          106.7182678,
          10.7530393
        ],
        [
          106.7184667,
          10.7531384
        ],
        [
          106.7186608,
          10.7532452
        ],
        [
          106.7187891,
          10.7533277
        ],
        [
          106.7190339,
          10.7535121
        ],
        [
          106.7191602,
          10.7536289
        ],
        [
          106.7192636,
          10.7537245
        ],
        [
          106.7195276,
          10.7540192
        ],
        [
          106.7198197,
          10.7543887
        ],
        [
          106.7200864,
          10.7547764
        ],
        [
          106.7203028,
          10.7551379
        ],
        [
          106.7203632,
          10.7552539
        ],
        [
          106.7204973,
          10.7555117
        ],
        [
          106.7207548,
          10.7560248
        ],
        [
          106.72112,
          10.7567526
        ],
        [
          106.7217145,
          10.7580069
        ],
        [
          106.7222803,
          10.7592738
        ],
        [
          106.7216122,
          10.7594403
        ],
        [
          106.7208942,
          10.7596553
        ],
        [
          106.7195912,
          10.7600983
        ],
        [
          106.7186654,
          10.7604432
        ],
        [
          106.7182063,
          10.7606252
        ],
        [
          106.7177225,
          10.7608338
        ],
        [
          106.7172415,
          10.7610484
        ],
        [
          106.7162877,
          10.7614952
        ],
        [
          106.7153237,
          10.7619765
        ],
        [
          106.7143725,
          10.7624818
        ],
        [
          106.713546,
          10.7629576
        ],
        [
          106.7132667,
          10.7631377
        ],
        [
          106.7127219,
          10.7635176
        ],
        [
          106.7124567,
          10.7637172
        ],
        [
          106.7121903,
          10.7639279
        ],
        [
          106.711674,
          10.7643685
        ],
        [
          106.711377,
          10.7646485
        ],
        [
          106.7111806,
          10.7648337
        ],
        [
          106.7109799,
          10.7650501
        ],
        [
          106.7105961,
          10.7654982
        ],
        [
          106.7102524,
          10.7659441
        ],
        [
          106.7099465,
          10.7663843
        ],
        [
          106.70962,
          10.7668982
        ],
        [
          106.7092788,
          10.7674879
        ],
        [
          106.7091195,
          10.7677888
        ],
        [
          106.7088273,
          10.7683942
        ],
        [
          106.7085687,
          10.7690052
        ],
        [
          106.7082991,
          10.7697601
        ],
        [
          106.7060486,
          10.7690684
        ],
        [
          106.7056291,
          10.7689242
        ],
        [
          106.7052267,
          10.7687638
        ],
        [
          106.7044202,
          10.7684069
        ],
        [
          106.7038639,
          10.7681835
        ],
        [
          106.7036651,
          10.7680873
        ],
        [
          106.7035693,
          10.7680314
        ],
        [
          106.7027803,
          10.767227
        ],
        [
          106.7022939,
          10.7667311
        ],
        [
          106.7019895,
          10.7662489
        ],
        [
          106.7019368,
          10.7661771
        ],
        [
          106.7017639,
          10.7659416
        ],
        [
          106.7015167,
          10.7656508
        ],
        [
          106.7013854,
          10.7655121
        ],
        [
          106.7012074,
          10.7653499
        ],
        [
          106.7007232,
          10.7649778
        ],
        [
          106.7003285,
          10.7646745
        ],
        [
          106.6992976,
          10.7640539
        ],
        [
          106.698744,
          10.7637206
        ],
        [
          106.6985112,
          10.7635624
        ],
        [
          106.698364,
          10.763427
        ],
        [
          106.6982152,
          10.7633005
        ],
        [
          106.6980962,
          10.763174
        ],
        [
          106.6979152,
          10.7629406
        ],
        [
          106.6975544,
          10.7624004
        ],
        [
          106.6971407,
          10.7618386
        ],
        [
          106.6969214,
          10.7615408
        ],
        [
          106.6964158,
          10.7609736
        ],
        [
          106.6961919,
          10.7606738
        ],
        [
          106.6960547,
          10.7605151
        ],
        [
          106.6959129,
          10.7603701
        ],
        [
          106.695826,
          10.7602946
        ],
        [
          106.6957226,
          10.7602048
        ],
        [
          106.6954617,
          10.7599781
        ],
        [
          106.694486,
          10.7592226
        ],
        [
          106.6926943,
          10.7582542
        ],
        [
          106.6926313,
          10.758216
        ],
        [
          106.6916093,
          10.7575954
        ],
        [
          106.6912137,
          10.7572362
        ],
        [
          106.6906724,
          10.7567447
        ],
        [
          106.6901384,
          10.7562986
        ],
        [
          106.6897117,
          10.7559422
        ],
        [
          106.6887473,
          10.7549482
        ],
        [
          106.6881266,
          10.7543877
        ],
        [
          106.6872747,
          10.753519
        ],
        [
          106.6869795,
          10.753218
        ],
        [
          106.6868162,
          10.7530038
        ],
        [
          106.6866683,
          10.7527539
        ],
        [
          106.6866062,
          10.7526228
        ],
        [
          106.6865066,
          10.7523509
        ],
        [
          106.6864645,
          10.7521935
        ],
        [
          106.6864321,
          10.7520009
        ],
        [
          106.6864219,
          10.7517073
        ]
      ]
    ]
  }
}
