{
  "type": "Feature",
  "properties": {
    "admin_area_id": "vn-hcm-ward-27265",
    "admin_area_name": "Phường Khánh Hội, Thành phố Hồ Chí Minh, Việt Nam",
    "admin_level": "6",
    "valid_from": "2025-07-01",
    "valid_to": null,
    "is_current": true,
    "source": "OpenStreetMap via Nominatim",
    "osm_type": "relation",
    "osm_id": 19260589
  },
  "geometry": {
    "type": "Polygon",
    "coordinates": [
      [
        [
          106.6969214,
          10.7615408
        ],
        [
          106.6972614,
          10.7612457
        ],
        [
          106.6974008,
          10.7611039
        ],
        [
          106.6976161,
          10.760855
        ],
        [
          106.6985289,
          10.7596374
        ],
        [
          106.6997675,
          10.7579851
        ],
        [
          106.7012136,
          10.7560559
        ],
        [
          106.7024769,
          10.7560889
        ],
        [
          106.7060681,
          10.7561828
        ],
        [
          106.7057262,
          10.7548822
        ],
        [
          106.7052965,
          10.7532477
        ],
        [
          106.7050529,
          10.753236
        ],
        [
          106.7050483,
          10.7524189
        ],
        [
          106.7078697,
          10.7524333
        ],
        [
          106.7078742,
          10.7532769
        ],
        [
          106.7079986,
          10.7535463
        ],
        [
          106.7086618,
          10.7547377
        ],
        [
          106.7091761,
          10.7554963
        ],
        [
          106.7111531,
          10.7588307
        ],
        [
          106.7099911,
          10.7595093
        ],
        [
          106.7099502,
          10.7595404
        ],
        [
          106.709688,
          10.7597394
        ],
        [
          106.7093607,
          10.7600034
        ],
        [
          106.7088048,
          10.7602943
        ],
        [
          106.7074754,
          10.76099
        ],
        [
          106.707501,
          10.7610518
        ],
        [
          106.7059425,
          10.7620021
        ],
        [
          106.7049437,
          10.7626112
        ],
        [
          106.703863,
          10.763295
        ],
        [
          106.7037589,
          10.7633687
        ],
        [
          106.7014866,
          10.7649775
        ],
        [
          106.7012074,
          10.7653499
        ],
        [
          106.7007232,
          10.7649778
        ],
        [
          106.7003285,
          10.7646745
        ],
        [
          106.6992976,
          10.7640539
        ],
        [
          106.698744,
          10.7637206
        ],
        [
          106.6985112,
          10.7635624
        ],
        [
          106.698364,
          10.763427
        ],
        [
          106.6982152,
          10.7633005
        ],
        [
          106.6980962,
          10.763174
        ],
        [
          106.6979152,
          10.7629406
        ],
        [
          106.6975544,
          10.7624004
        ],
        [
          106.6971407,
          10.7618386
        ],
        [
          106.6969214,
          10.7615408
        ]
      ]
    ]
  }
}
